{
    "links": {
        "self": "http://www.neowsapp.com/rest/v1/neo/3588064?api_key=iIulBulltgU6a56xZRHN4H3l9WmuAYTsLGpBGhQ2"
    },
    "id": "3588064",
    "neo_reference_id": "3588064",
    "name": "(2011 WU4)",
    "designation": "2011 WU4",
    "nasa_jpl_url": "http://ssd.jpl.nasa.gov/sbdb.cgi?sstr=3588064",
    "absolute_magnitude_h": 22.5,
    "estimated_diameter": {
        "kilometers": {
            "estimated_diameter_min": 0.0840533402,
            "estimated_diameter_max": 0.1879489824
        },
        "meters": {
            "estimated_diameter_min": 84.0533402073,
            "estimated_diameter_max": 187.9489824394
        },
        "miles": {
            "estimated_diameter_min": 0.0522283081,
            "estimated_diameter_max": 0.1167860472
        },
        "feet": {
            "estimated_diameter_min": 275.7655606856,
            "estimated_diameter_max": 616.6305395464
        }
    },
    "is_potentially_hazardous_asteroid": false,
    "close_approach_data": [
        {
            "close_approach_date": "2011-12-09",
            "close_approach_date_full": "2011-Dec-09 09:19",
            "epoch_date_close_approach": 1323422340000,
            "relative_velocity": {
                "kilometers_per_second": "10.0099325346",
                "kilometers_per_hour": "36035.7571247342",
                "miles_per_hour": "22391.218086755"
            },
            "miss_distance": {
                "astronomical": "0.083717104",
                "lunar": "32.565953456",
                "kilometers": "12523900.44096848",
                "miles": "7781990.878305824"
            },
            "orbiting_body": "Earth"
        }
    ],
    "orbital_data": {
        "orbit_id": "9",
        "orbit_determination_date": "2017-04-06 08:51:58",
        "first_observation_date": "2011-11-18",
        "last_observation_date": "2011-12-10",
        "data_arc_in_days": 22,
        "observations_used": 59,
        "orbit_uncertainty": "7",
        "minimum_orbit_intersection": ".0829043",
        "jupiter_tisserand_invariant": "3.720",
        "epoch_osculation": "2459000.5",
        "eccentricity": ".5206244723921836",
        "semi_major_axis": "1.939025518895387",
        "inclination": "6.274425076160976",
        "ascending_node_longitude": "31.19760910901977",
        "orbital_period": "986.2197920413371",
        "perihelion_distance": ".9295213811654963",
        "perihelion_argument": "86.23619236350888",
        "aphelion_distance": "2.948529656625278",
        "perihelion_time": "2458894.874179670892",
        "mean_anomaly": "38.55661347028116",
        "mean_motion": ".3650301919563491",
        "equinox": "J2000",
        "orbit_class": {
            "orbit_class_type": "APO",
            "orbit_class_description": "Near-Earth asteroid orbits which cross the Earth’s orbit similar to that of 1862 Apollo",
            "orbit_class_range": "a (semi-major axis) > 1.0 AU; q (perihelion) < 1.017 AU"
        }
    },
    "is_sentry_object": false
}